NORAD_CAT_ID,OBJECT_NAME,OBJECT_TYPE,EPOCH,MEAN_MOTION,ECCENTRICITY,INCLINATION,RA_OF_ASC_NODE,ARG_OF_PERICENTER,MEAN_ANOMALY,BSTAR,MEAN_MOTION_DOT,MEAN_MOTION_DDOT,TLE_LINE0,TLE_LINE1,TLE_LINE2,SEMIMAJOR_AXIS,PERIOD,APOGEE,PERIGEE,DECAYED
55630.0,STARLINK-5303,PAYLOAD,2023-05-20 16:54:44,14.98342883,0.0002792,69.9994,266.3447,253.9787,106.1065,6.1142e-05,6.37e-06,0.0,0 STARLINK-5303,1 55630U 23021C   23140.70467823  .00000637  00000-0  61142-4 0  9998,2 55630  69.9994 266.3447 0002792 253.9787 106.1065 14.98342883 14611,6950.153,96.106,573.959,570.078,0.0
55630.0,STARLINK-5303,PAYLOAD,2023-05-20 18:30:52,14.98342289,0.0003057,69.9996,266.1772,258.6117,101.4699,0.00012412,1.389e-05,0.0,0 STARLINK-5303,1 55630U 23021C   23140.77143592  .00001389  00000-0  12412-3 0  9999,2 55630  69.9996 266.1772 0003057 258.6117 101.4699 14.98342289 14921,6950.155,96.106,574.145,569.895,0.0
55630.0,STARLINK-5303,PAYLOAD,2023-05-21 07:19:57,14.9833534,0.000261,70.0013,264.832,267.1796,92.9064,9.0148e-05,9.83e-06,0.0,0 STARLINK-5303,1 55630U 23021C   23141.30552128  .00000983  00000-0  90148-4 0  9990,2 55630  70.0013 264.8320 0002610 267.1796  92.9064 14.98335340 14706,6950.176,96.107,573.855,570.227,0.0
55630.0,STARLINK-5303,PAYLOAD,2023-05-21 10:32:13,14.98331076,0.0003003,69.9991,264.492,262.9894,97.0923,-3.5586e-06,-1.35e-06,0.0,0 STARLINK-5303,1 55630U 23021C   23141.43904519 -.00000135  00000-0 -35586-5 0  9996,2 55630  69.9991 264.4920 0003003 262.9894  97.0923 14.98331076 15027,6950.19,96.107,574.142,569.967,0.0
55630.0,STARLINK-5303,PAYLOAD,2023-05-21 15:20:37,14.98329578,0.0003158,69.9991,263.9873,268.3968,91.6829,-5.7453e-06,-1.62e-06,0.0,0 STARLINK-5303,1 55630U 23021C   23141.63932650 -.00000162  00000-0 -57453-5 0  9992,2 55630  69.9991 263.9873 0003158 268.3968  91.6829 14.98329578 14759,6950.194,96.107,574.254,569.864,0.0
55630.0,STARLINK-5303,PAYLOAD,2023-05-21 18:32:53,14.98329922,0.0003073,69.9995,263.6507,263.993,96.0878,-7.0483e-06,-1.77e-06,0.0,0 STARLINK-5303,1 55630U 23021C   23141.77284607 -.00000177  00000-0 -70483-5 0  9993,2 55630  69.9995 263.6507 0003073 263.9930  96.0878 14.98329922 15072,6950.193,96.107,574.194,569.922,0.0
55630.0,STARLINK-5303,PAYLOAD,2023-05-22 10:34:14,14.9833314,0.0003106,69.9995,261.968,269.6026,90.4777,-2.4772e-05,-3.89e-06,0.0,0 STARLINK-5303,1 55630U 23021C   23142.44044454 -.00000389  00000-0 -24772-4 0  9996,2 55630  69.9995 261.9680 0003106 269.6026  90.4777 14.98333140 15175,6950.183,96.107,574.207,569.889,0.0
55630.0,STARLINK-5303,PAYLOAD,2023-05-22 15:22:38,14.98334108,0.0002956,69.9996,261.4631,263.9056,96.1767,4.7519e-05,4.74e-06,0.0,0 STARLINK-5303,1 55630U 23021C   23142.64072163  .00000474  00000-0  47519-4 0  9993,2 55630  69.9996 261.4631 0002956 263.9056  96.1767 14.98334108 14906,6950.18,96.107,574.1,569.991,0.0
55630.0,STARLINK-5303,PAYLOAD,2023-05-23 12:12:23,14.98325182,0.000307,69.9997,259.2749,270.1148,89.9659,5.1115e-05,5.17e-06,0.0,0 STARLINK-5303,1 55630U 23021C   23143.50860731  .00000517  00000-0  51115-4 0  9990,2 55630  69.9997 259.2749 0003070 270.1148  89.9659 14.98325182 15039,6950.208,96.107,574.207,569.939,0.0
55630.0,STARLINK-5303,PAYLOAD,2023-05-23 17:00:47,14.98324961,0.0003075,69.9997,258.77,270.2361,89.8446,4.5201e-05,4.46e-06,0.0,0 STARLINK-5303,1 55630U 23021C   23143.70888827  .00000446  00000-0  45201-4 0  9998,2 55630  69.9997 258.7700 0003075 270.2361  89.8446 14.98324961 15366,6950.208,96.107,574.211,569.936,0.0
55630.0,STARLINK-5303,PAYLOAD,2023-05-24 15:26:40,14.98359078,0.0003345,69.9995,256.4138,267.5258,92.5518,-0.00051569,-6.246e-05,0.0,0 STARLINK-5303,1 55630U 23021C   23144.64352026 -.00006246  00000-0 -51569-3 0  9998,2 55630  69.9995 256.4138 0003345 267.5258  92.5518 14.98359078 15209,6950.103,96.105,574.293,569.643,0.0
55630.0,STARLINK-5303,PAYLOAD,2023-05-25 13:52:33,14.98333065,0.0003259,69.9996,254.057,268.6934,91.3851,0.00011232,1.248e-05,0.0,0 STARLINK-5303,1 55630U 23021C   23145.57816268  .00001248  00000-0  11232-3 0  9992,2 55630  69.9996 254.0570 0003259 268.6934  91.3851 14.98333065 15644,6950.183,96.107,574.313,569.783,0.0
55630.0,STARLINK-5303,PAYLOAD,2023-05-25 17:04:49,14.98335194,0.0003241,69.9997,253.7204,268.8047,91.2741,0.00013293,1.494e-05,0.0,0 STARLINK-5303,1 55630U 23021C   23145.71168055  .00001494  00000-0  13293-3 0  9994,2 55630  69.9997 253.7204 0003241 268.8047  91.2741 14.98335194 15364,6950.177,96.107,574.294,569.789,0.0
55630.0,STARLINK-5303,PAYLOAD,2023-05-26 10:42:18,14.98329347,0.0003171,69.9999,251.8685,268.8852,91.1944,3.8605e-05,3.68e-06,0.0,0 STARLINK-5303,1 55630U 23021C   23146.44604612  .00000368  00000-0  38605-4 0  9993,2 55630  69.9999 251.8685 0003171 268.8852  91.1944 14.98329347 15473,6950.195,96.107,574.264,569.856,0.0
55630.0,STARLINK-5303,PAYLOAD,2023-05-26 13:54:34,14.98329665,0.000308,70.0002,251.533,262.9123,97.1686,4.7905e-05,4.79e-06,0.0,0 STARLINK-5303,1 55630U 23021C   23146.57956536  .00000479  00000-0  47905-4 0  9998,2 55630  70.0002 251.5330 0003080 262.9123  97.1686 14.98329665 15797,6950.194,96.107,574.2,569.918,0.0
55630.0,STARLINK-5303,PAYLOAD,2023-05-26 17:06:50,14.9832993,0.0003087,70.0002,251.1961,263.64,96.4408,4.7497e-05,4.74e-06,0.0,0 STARLINK-5303,1 55630U 23021C   23146.71308520  .00000474  00000-0  47497-4 0  9999,2 55630  70.0002 251.1961 0003087 263.6400  96.4408 14.98329930 15818,6950.193,96.107,574.204,569.913,0.0
55630.0,STARLINK-5303,PAYLOAD,2023-05-27 10:44:18,14.98334601,0.0003032,70.0003,249.345,261.6013,98.4803,8.5347e-07,-8.3e-07,0.0,0 STARLINK-5303,1 55630U 23021C   23147.44744186 -.00000083  00000-0  85347-6 0  9997,2 55630  70.0003 249.3450 0003032 261.6013  98.4803 14.98334601 15620,6950.179,96.107,574.151,569.936,0.0
55630.0,STARLINK-5303,PAYLOAD,2023-05-27 17:08:51,14.98332729,0.0003066,70.0003,248.6715,263.5856,96.4954,-2.2852e-05,-3.66e-06,0.0,0 STARLINK-5303,1 55630U 23021C   23147.71448321 -.00000366  00000-0 -22852-4 0  9994,2 55630  70.0003 248.6715 0003066 263.5856  96.4954 14.98332729 15960,6950.184,96.107,574.18,569.919,0.0
55630.0,STARLINK-5303,PAYLOAD,2023-05-28 05:57:55,14.98331759,0.0003197,69.9999,247.3238,267.4763,92.603,4.6686e-05,4.64e-06,0.0,0 STARLINK-5303,1 55630U 23021C   23148.24856133  .00000464  00000-0  46686-4 0  9995,2 55630  69.9999 247.3238 0003197 267.4763  92.6030 14.98331759 16047,6950.187,96.107,574.274,569.83,0.0
55630.0,STARLINK-5303,PAYLOAD,2023-05-28 10:46:19,14.98332171,0.0003214,69.9998,246.8189,266.6588,93.4203,4.571e-05,4.52e-06,0.0,0 STARLINK-5303,1 55630U 23021C   23148.44884073  .00000452  00000-0  45710-4 0  9995,2 55630  69.9998 246.8189 0003214 266.6588  93.4203 14.98332171 15770,6950.186,96.107,574.285,569.817,0.0
55630.0,STARLINK-5303,PAYLOAD,2023-05-28 15:34:43,14.98333276,0.0003196,69.9998,246.314,266.5356,93.5438,5.7171e-05,5.89e-06,0.0,0 STARLINK-5303,1 55630U 23021C   23148.64911951  .00000589  00000-0  57171-4 0  9998,2 55630  69.9998 246.3140 0003196 266.5356  93.5438 14.98333276 16109,6950.183,96.107,574.269,569.826,0.0
55630.0,STARLINK-5303,PAYLOAD,2023-05-29 10:48:20,14.98331555,0.0003211,69.9998,244.2943,268.5555,91.5236,2.8164e-05,2.43e-06,0.0,0 STARLINK-5303,1 55630U 23021C   23149.45024012  .00000243  00000-0  28164-4 0  9998,2 55630  69.9998 244.2943 0003211 268.5555  91.5236 14.98331555 15929,6950.188,96.107,574.285,569.821,0.0
55630.0,STARLINK-5303,PAYLOAD,2023-05-29 14:00:36,14.98330794,0.000322,69.9998,243.9577,268.4144,91.6646,1.7765e-05,1.19e-06,0.0,0 STARLINK-5303,1 55630U 23021C   23149.58376070  .00000119  00000-0  17765-4 0  9993,2 55630  69.9998 243.9577 0003220 268.4144  91.6646 14.98330794 16247,6950.19,96.107,574.293,569.817,0.0
55630.0,STARLINK-5303,PAYLOAD,2023-05-29 15:36:44,14.98331048,0.0003218,69.9998,243.7894,268.4208,91.6583,1.9993e-05,1.46e-06,0.0,0 STARLINK-5303,1 55630U 23021C   23149.65052042  .00000146  00000-0  19993-4 0  9996,2 55630  69.9998 243.7894 0003218 268.4208  91.6583 14.98331048 16259,6950.19,96.107,574.291,569.818,0.0
55630.0,STARLINK-5303,PAYLOAD,2023-05-30 09:14:14,14.9832704,0.0003209,69.9998,241.9382,267.3339,92.7453,-4.0141e-05,-5.72e-06,0.0,0 STARLINK-5303,1 55630U 23021C   23150.38488475 -.00000572  00000-0 -40141-4 0  9995,2 55630  69.9998 241.9382 0003209 267.3339  92.7453 14.98327040 16068,6950.202,96.107,574.297,569.837,0.0
55630.0,STARLINK-5303,PAYLOAD,2023-05-30 12:26:30,14.98326725,0.0003212,69.9999,241.6017,267.3214,92.7577,-3.9286e-05,-5.62e-06,0.0,0 STARLINK-5303,1 55630U 23021C   23150.51840517 -.00000562  00000-0 -39286-4 0  9996,2 55630  69.9999 241.6017 0003212 267.3214  92.7577 14.98326725 16388,6950.203,96.107,574.3,569.836,0.0
55630.0,STARLINK-5303,PAYLOAD,2023-05-30 15:38:46,14.98327067,0.0003211,69.9999,241.2651,267.3254,92.7537,-3.4511e-05,-5.05e-06,0.0,0 STARLINK-5303,1 55630U 23021C   23150.65192503 -.00000505  00000-0 -34511-4 0  9999,2 55630  69.9999 241.2651 0003211 267.3254  92.7537 14.98327067 16400,6950.202,96.107,574.299,569.835,0.0
55630.0,STARLINK-5303,PAYLOAD,2023-05-31 10:52:22,14.98333342,0.0003388,69.9995,239.2444,269.4832,90.5939,7.8373e-05,8.42e-06,0.0,0 STARLINK-5303,1 55630U 23021C   23151.45303730  .00000842  00000-0  78373-4 0  9990,2 55630  69.9995 239.2444 0003388 269.4832  90.5939 14.98333342 16228,6950.183,96.107,574.402,569.693,0.0
55630.0,STARLINK-5303,PAYLOAD,2023-05-31 14:04:38,14.98336556,0.0003406,69.9994,238.9077,269.123,90.9539,8.1648e-05,8.81e-06,0.0,0 STARLINK-5303,1 55630U 23021C   23151.58655472  .00000881  00000-0  81648-4 0  9999,2 55630  69.9994 238.9077 0003406 269.1230  90.9539 14.98336556 16540,6950.173,96.107,574.405,569.67,0.0
55630.0,STARLINK-5303,PAYLOAD,2023-05-31 15:40:46,14.98337121,0.0003405,69.9994,238.7394,269.1734,90.9034,8.6977e-05,9.45e-06,0.0,0 STARLINK-5303,1 55630U 23021C   23151.65331401  .00000945  00000-0  86977-4 0  9991,2 55630  69.9994 238.7394 0003405 269.1734  90.9034 14.98337121 16558,6950.171,96.107,574.402,569.669,0.0
